DUPLEX                  
1 66906U 98067XS  26083.92888826  .00024404  00000+0  33524-3 0  9990
2 66906  51.6302 353.1716 0003160 178.0545 182.0460 15.57162607 17506
ISS OBJECT XT           
1 66907U 98067XT  26083.90475689  .00179802  00000+0  11777-2 0  9996
2 66907  51.6251 347.7296 0005389 177.4777 182.6251 15.74685538 17570
ISS OBJECT XU           
1 66908U 98067XU  26083.90153419  .00187437  00000+0  12158-2 0  9998
2 66908  51.6244 347.7039 0005616 177.7304 182.3722 15.74884594 17573
SILVERSAT               
1 66909U 98067XV  26083.99408541  .00260451  00000+0  13609-2 0  9997
2 66909  51.6220 346.0620 0006338 184.6058 175.4886 15.79536153 17609
ISS OBJECT XW           
1 66910U 98067XW  26083.97205397  .00159396  00000+0  11029-2 0  9990
2 66910  51.6240 347.4212 0005866 177.4194 182.6836 15.73475349 17586
ISS OBJECT XX           
1 66911U 98067XX  26083.95038701  .00366809  00000+0  14598-2 0  9995
2 66911  51.6196 344.9890 0007914 186.7603 173.3295 15.85075899 17603
ISS OBJECT XY           
1 66912U 98067XY  26083.77743036  .00096362  00000+0  89214-3 0  9992
2 66912  51.6273 350.6497 0003990 176.2596 183.8431 15.66719711 17517
KNACKSAT-2              
1 67683U 98067XZ  26083.91923458  .00035223  00000+0  55674-3 0  9994
2 67683  51.6318 356.1066 0009905 240.7531 119.2469 15.53079473  7157
CORAL                   
1 67684U 98067YA  26083.92555102  .00072525  00000+0  98477-3 0  9997
2 67684  51.6305 355.3995 0012287 230.2179 129.7731 15.56874692  7163
GXIBA-1                 
1 67685U 98067YB  26083.97488157  .00040871  00000+0  63205-3 0  9998
2 67685  51.6331 355.7329 0011849 238.3998 121.5836 15.53588882  7165
UITMSAT-2               
1 67686U 98067YC  26083.76964604  .00051668  00000+0  77298-3 0  9995
2 67686  51.6329 356.6112 0008804 208.2356 151.8159 15.54430912  7136
HMU-SAT2                
1 67687U 98067YD  26083.97918550  .00039858  00000+0  62313-3 0  9997
2 67687  51.6326 355.7594 0008411 211.5179 148.5308 15.53338979  7084
LEOPARD                 
1 67688U 98067YE  26083.77524011  .00047267  00000+0  71837-3 0  9995
2 67688  51.6324 356.6479 0008637 208.8470 151.2044 15.54039220  7051
CREW DRAGON 12          
1 67796U 26031A   26083.80895787  .00009690  00000+0  18680-3 0  9997
2 67796  51.6344 357.6177 0006258 228.0573 131.9883 15.48525391558604
PROGRESS-MS 33          
1 68319U 26058A   26083.80895787  .00009690  00000+0  18680-3 0  9998
2 68319  51.6344 357.6177 0006258 228.0573 131.9883 15.48525391   114
